{
  "links" : {
    "next" : "https://api.nasa.gov/neo/rest/v1/feed?start_date=2011-07-16&end_date=2011-07-16&detailed=true&api_key=t0TVs3DtDT2H8Oy2Zy8m2eVrNsAVKAexjcZXUckd",
    "prev" : "https://api.nasa.gov/neo/rest/v1/feed?start_date=2011-07-14&end_date=2011-07-14&detailed=true&api_key=t0TVs3DtDT2H8Oy2Zy8m2eVrNsAVKAexjcZXUckd",
    "self" : "https://api.nasa.gov/neo/rest/v1/feed?start_date=2011-07-15&end_date=2011-07-15&detailed=true&api_key=t0TVs3DtDT2H8Oy2Zy8m2eVrNsAVKAexjcZXUckd"
  },
  "element_count" : 6,
  "near_earth_objects" : {
    "2011-07-15" : [ {
      "links" : {
        "self" : "https://api.nasa.gov/neo/rest/v1/neo/3573157?api_key=t0TVs3DtDT2H8Oy2Zy8m2eVrNsAVKAexjcZXUckd"
      },
      "neo_reference_id" : "3573157",
      "name" : "(2011 OR5)",
      "nasa_jpl_url" : "http://ssd.jpl.nasa.gov/sbdb.cgi?sstr=3573157",
      "absolute_magnitude_h" : 25.9,
      "estimated_diameter" : {
        "kilometers" : {
          "estimated_diameter_min" : 0.0175612318,
          "estimated_diameter_max" : 0.0392681082
        },
        "meters" : {
          "estimated_diameter_min" : 17.561231848,
          "estimated_diameter_max" : 39.2681081809
        },
        "miles" : {
          "estimated_diameter_min" : 0.0109120402,
          "estimated_diameter_max" : 0.0244000636
        },
        "feet" : {
          "estimated_diameter_min" : 57.6155918963,
          "estimated_diameter_max" : 128.8323800441
        }
      },
      "is_potentially_hazardous_asteroid" : false,
      "close_approach_data" : [ {
        "close_approach_date" : "2011-07-15",
        "epoch_date_close_approach" : 1310713200000,
        "relative_velocity" : {
          "kilometers_per_second" : "5.7147396208",
          "kilometers_per_hour" : "20573.0626348458",
          "miles_per_hour" : "12783.3010577462"
        },
        "miss_distance" : {
          "astronomical" : "0.0305235356",
          "lunar" : "11.8736553192",
          "kilometers" : "4566256",
          "miles" : "2837339.75"
        },
        "orbiting_body" : "Earth"
      } ],
      "orbital_data" : {
        "orbit_id" : "8",
        "orbit_determination_date" : "2017-04-06 08:53:08",
        "orbit_uncertainty" : "7",
        "minimum_orbit_intersection" : ".0298386",
        "jupiter_tisserand_invariant" : "4.719",
        "epoch_osculation" : "2458000.5",
        "eccentricity" : ".279880277836121",
        "semi_major_axis" : "1.395611050448902",
        "inclination" : "4.771733242832021",
        "ascending_node_longitude" : "307.9791593808121",
        "orbital_period" : "602.2059278067878",
        "perihelion_distance" : "1.005007041898103",
        "perihelion_argument" : "314.2955841709561",
        "aphelion_distance" : "1.786215058999702",
        "perihelion_time" : "2458140.386209271781",
        "mean_anomaly" : "276.3757229669808",
        "mean_motion" : ".5978021526807399",
        "equinox" : "J2000"
      }
    }, {
      "links" : {
        "self" : "https://api.nasa.gov/neo/rest/v1/neo/3249347?api_key=t0TVs3DtDT2H8Oy2Zy8m2eVrNsAVKAexjcZXUckd"
      },
      "neo_reference_id" : "3249347",
      "name" : "(2004 PS42)",
      "nasa_jpl_url" : "http://ssd.jpl.nasa.gov/sbdb.cgi?sstr=3249347",
      "absolute_magnitude_h" : 21.3,
      "estimated_diameter" : {
        "kilometers" : {
          "estimated_diameter_min" : 0.1460679643,
          "estimated_diameter_max" : 0.3266178974
        },
        "meters" : {
          "estimated_diameter_min" : 146.0679642714,
          "estimated_diameter_max" : 326.6178974458
        },
        "miles" : {
          "estimated_diameter_min" : 0.090762397,
          "estimated_diameter_max" : 0.2029508896
        },
        "feet" : {
          "estimated_diameter_min" : 479.2256199,
          "estimated_diameter_max" : 1071.581062656
        }
      },
      "is_potentially_hazardous_asteroid" : true,
      "close_approach_data" : [ {
        "close_approach_date" : "2011-07-15",
        "epoch_date_close_approach" : 1310713200000,
        "relative_velocity" : {
          "kilometers_per_second" : "14.3904236779",
          "kilometers_per_hour" : "51805.5252406178",
          "miles_per_hour" : "32189.938725205"
        },
        "miss_distance" : {
          "astronomical" : "0.3961893321",
          "lunar" : "154.1176452637",
          "kilometers" : "59269080",
          "miles" : "36828100"
        },
        "orbiting_body" : "Earth"
      } ],
      "orbital_data" : {
        "orbit_id" : "24",
        "orbit_determination_date" : "2017-04-06 09:12:30",
        "orbit_uncertainty" : "1",
        "minimum_orbit_intersection" : ".0474329",
        "jupiter_tisserand_invariant" : "5.075",
        "epoch_osculation" : "2458000.5",
        "eccentricity" : ".1673179310154297",
        "semi_major_axis" : "1.241892134495328",
        "inclination" : "23.19257248011608",
        "ascending_node_longitude" : "304.3290805236057",
        "orbital_period" : "505.5035869604043",
        "perihelion_distance" : "1.034101312007234",
        "perihelion_argument" : "323.4091812259828",
        "aphelion_distance" : "1.449682956983422",
        "perihelion_time" : "2458237.857429040141",
        "mean_anomaly" : "190.9632678014138",
        "mean_motion" : ".712161118706757",
        "equinox" : "J2000"
      }
    }, {
      "links" : {
        "self" : "https://api.nasa.gov/neo/rest/v1/neo/3430406?api_key=t0TVs3DtDT2H8Oy2Zy8m2eVrNsAVKAexjcZXUckd"
      },
      "neo_reference_id" : "3430406",
      "name" : "(2008 TR10)",
      "nasa_jpl_url" : "http://ssd.jpl.nasa.gov/sbdb.cgi?sstr=3430406",
      "absolute_magnitude_h" : 20.4,
      "estimated_diameter" : {
        "kilometers" : {
          "estimated_diameter_min" : 0.2210828104,
          "estimated_diameter_max" : 0.4943561926
        },
        "meters" : {
          "estimated_diameter_min" : 221.0828103591,
          "estimated_diameter_max" : 494.3561926196
        },
        "miles" : {
          "estimated_diameter_min" : 0.137374447,
          "estimated_diameter_max" : 0.3071786018
        },
        "feet" : {
          "estimated_diameter_min" : 725.3373275385,
          "estimated_diameter_max" : 1621.9035709942
        }
      },
      "is_potentially_hazardous_asteroid" : false,
      "close_approach_data" : [ {
        "close_approach_date" : "2011-07-15",
        "epoch_date_close_approach" : 1310713200000,
        "relative_velocity" : {
          "kilometers_per_second" : "5.4325810245",
          "kilometers_per_hour" : "19557.291688314",
          "miles_per_hour" : "12152.1404937749"
        },
        "miss_distance" : {
          "astronomical" : "0.1439171861",
          "lunar" : "55.9837875366",
          "kilometers" : "21529706",
          "miles" : "13377939"
        },
        "orbiting_body" : "Earth"
      } ],
      "orbital_data" : {
        "orbit_id" : "47",
        "orbit_determination_date" : "2017-04-06 09:02:37",
        "orbit_uncertainty" : "0",
        "minimum_orbit_intersection" : ".123624",
        "jupiter_tisserand_invariant" : "3.578",
        "epoch_osculation" : "2458000.5",
        "eccentricity" : ".4679380439117499",
        "semi_major_axis" : "2.119269557327586",
        "inclination" : "5.395036767445239",
        "ascending_node_longitude" : "256.4215789196422",
        "orbital_period" : "1126.880143528642",
        "perihelion_distance" : "1.127582706149996",
        "perihelion_argument" : "35.67036116305117",
        "aphelion_distance" : "3.110956408505178",
        "perihelion_time" : "2458014.795180651925",
        "mean_anomaly" : "355.4331744469485",
        "mean_motion" : ".31946609589971",
        "equinox" : "J2000"
      }
    } ]
  }
}